         Period             3.191339006728237E-01    # days
       }
       
       # CustomRotation "iau-phobos"
     }
         ]
         
         Albedo         0.08
         
   }
   
  Replace "Deimos" "Sol/Mars"
   {
     Mesh "Deimos.low.bin.cmod"
     Radius 7.9
     MeshCenter [ 0.00 -0.10 0.10 ]  
     Timeline
     [
     # Before 
     {
       OrbitFrame { EclipticJ2000 { Center "Sol/Mars" }}
       BodyFrame  { EquatorJ2000  { Center "Sol/Mars" }}
       Ending    "1900 02 04 00:00:41.184 " # add 1 month for drawing orbit
       
       EllipticalOrbit
       {
         Epoch        2415054.500000000              # 1900 02 04
         Eccentricity       2.727785842374572E-04    # well Ecc.
         AscendingNode      8.014712529094811E+01    # Deg.
         SemiMajorAxis      2.345843352277748E+04    # Km.
         ArgOfPericenter    2.794768893629913E+02    # Deg.
         MeanAnomaly        4.108445654415713E+01    # Deg.
         Inclination        2.706516193051360E+01    # Deg.
         Period             1.262550755300245E+00    #  days
       }
       
       
       CustomRotation "iau-deimos"
     }
     # spice
     {
       OrbitFrame { EclipticJ2000 { Center "Sol/Mars_bary" }}
       BodyFrame  { EclipticJ2000  { Center "Sol/Mars"      }}
       Ending    "2099 12 01 00:01:07.183"  # minus 1 month for drawing orbit 
       SpiceOrbit
       {
         Kernel "mar097.bsp"
         Target "402"
         Origin "4"   
         Period   1.2624408
         BoundingRadius 1e10
       }
       
       
       #CustomRotation "iau-deimos"
       SpiceRotation
       {
         Kernel           [ "pck00010.tpc"   "naif0012.tls" ]
         Frame               "IAU_DEIMOS"
       }
     }
     # After Spice
     {
       OrbitFrame { EclipticJ2000 { Center "Sol/Mars" }}
       BodyFrame  { EquatorJ2000  { Center "Sol/Mars" }}
       
       EllipticalOrbit
       {
         Epoch        2488038.500000000              # 2099 12 01
         Eccentricity       2.637095563057808E-04    # well Ecc.
         AscendingNode      8.643314126921305E+01    # Deg.
         SemiMajorAxis      2.345856966798129E+04    # Km.
         ArgOfPericenter    1.469448698896884E+02    # Deg.
         MeanAnomaly        1.026702715681343E+02    # Deg.
         Inclination        2.641083361232704E+01    # Deg.
         Period             1.262561746474004E+00    # days
       }     
       CustomRotation "iau-deimos"
     }
    ]       
         Albedo   0.08
   }
   
   
   
   
